#Pass ID: 20250129_145807_METOP-B
#Satellite: METOP-B
#Configuration: METOP-B
#Start time: 2025-01-29 14:58:12.400560

#LorettStation: 1.0.0 05.05.2024
#Station: Planum_Noyabrsk
#Location: 75.446886 lon 63.207202 lat
#TLE: 1 38771U 12049A   25028.41643623  .00000311  00000+0  16173-3 0  9993
#TLE: 2 38771  98.5988  86.2277 0001478  66.5067 293.6266 14.21420133641542

#Time	Az	El	Level	SNR
#Closed at: 2025-01-29 14:58:07.404442